STARLINK-33794          
1 63820U 25092S   26068.30477631  .00031429  00000+0  11457-2 0  9998
2 63820  42.9993 174.9040 0001633 276.8561  83.2105 15.27611759 48555
ARCSTONE                
1 64540U 25135N   26068.88991918  .00026427  00000+0  94900-3 0  9995
2 64540  97.4495 185.9194 0004120 166.7863 193.3485 15.28638458 39847
